{
  "type": "FeatureCollection",
  "features": [
    {
      "type": "Feature",
      "properties": {
        "norad_id": 37406,
        "name": "FENGYUN 1C DEB",
        "group": "fengyun-1c-debris",
        "lat": -41.41429015700755,
        "lon": 38.25026089071904,
        "alt_km": 786.02314508379,
        "timestamp": "2025-12-20T03:42:47.682345+00:00",
        "meta_object_name": "FENGYUN 1C DEB",
        "meta_object_id": "1999-025EFY",
        "meta_epoch": "2025-12-18T11:54:12.055968",
        "meta_mean_motion": 14.04312193,
        "meta_eccentricity": 0.01490772,
        "meta_inclination": 98.4429,
        "meta_ra_of_asc_node": 224.2353,
        "meta_arg_of_pericenter": 250.1926,
        "meta_mean_anomaly": 231.2149,
        "meta_ephemeris_type": 0,
        "meta_classification_type": "U",
        "meta_norad_cat_id": 37406,
        "meta_element_set_no": 999,
        "meta_rev_at_epoch": 63313,
        "meta_bstar": 0.000752683,
        "meta_mean_motion_dot": 1.28e-05,
        "meta_mean_motion_ddot": 0,
        "tle_line1": "1 37406U 99025EFY 25352.49597287  .00001280  00000+0  75268-3 0  9994",
        "tle_line2": "2 37406  98.4429 224.2353 0149077 250.1926 231.2149 14.04312193633138"
      },
      "geometry": {
        "type": "Point",
        "coordinates": [
          38.25026089071904,
          -41.41429015700755
        ]
      }
    },
    {
      "type": "Feature",
      "properties": {
        "norad_id": 37415,
        "name": "FENGYUN 1C DEB",
        "group": "fengyun-1c-debris",
        "lat": -80.69334904811909,
        "lon": -153.51622958674895,
        "alt_km": 1118.1661603033026,
        "timestamp": "2025-12-20T03:42:47.682355+00:00",
        "meta_object_name": "FENGYUN 1C DEB",
        "meta_object_id": "1999-025EGH",
        "meta_epoch": "2025-12-08T13:21:24.699168",
        "meta_mean_motion": 13.52085555,
        "meta_eccentricity": 0.0285076,
        "meta_inclination": 98.9817,
        "meta_ra_of_asc_node": 90.7824,
        "meta_arg_of_pericenter": 192.9583,
        "meta_mean_anomaly": 166.412,
        "meta_ephemeris_type": 0,
        "meta_classification_type": "U",
        "meta_norad_cat_id": 37415,
        "meta_element_set_no": 999,
        "meta_rev_at_epoch": 62265,
        "meta_bstar": 0.00090162,
        "meta_mean_motion_dot": 7.27e-06,
        "meta_mean_motion_ddot": 0,
        "tle_line1": "1 37415U 99025EGH 25342.55653587  .00000727  00000+0  90162-3 0  9991",
        "tle_line2": "2 37415  98.9817  90.7824 0285076 192.9583 166.4120 13.52085555622659"
      },
      "geometry": {
        "type": "Point",
        "coordinates": [
          -153.51622958674895,
          -80.69334904811909
        ]
      }
    },
    {
      "type": "Feature",
      "properties": {
        "norad_id": 37417,
        "name": "FENGYUN 1C DEB",
        "group": "fengyun-1c-debris",
        "lat": 76.85089558233031,
        "lon": -54.76455162030042,
        "alt_km": 914.0695777685505,
        "timestamp": "2025-12-20T03:42:47.682365+00:00",
        "meta_object_name": "FENGYUN 1C DEB",
        "meta_object_id": "1999-025EGK",
        "meta_epoch": "2025-12-14T05:42:40.741056",
        "meta_mean_motion": 14.07392005,
        "meta_eccentricity": 0.00781873,
        "meta_inclination": 98.797,
        "meta_ra_of_asc_node": 340.9941,
        "meta_arg_of_pericenter": 256.4358,
        "meta_mean_anomaly": 102.8093,
        "meta_ephemeris_type": 0,
        "meta_classification_type": "U",
        "meta_norad_cat_id": 37417,
        "meta_element_set_no": 999,
        "meta_rev_at_epoch": 68371,
        "meta_bstar": 0.00034066216,
        "meta_mean_motion_dot": 5.45e-06,
        "meta_mean_motion_ddot": 0,
        "tle_line1": "1 37417U 99025EGK 25348.23797154  .00000545  00000+0  34066-3 0  9992",
        "tle_line2": "2 37417  98.7970 340.9941 0078187 256.4358 102.8093 14.07392005683717"
      },
      "geometry": {
        "type": "Point",
        "coordinates": [
          -54.76455162030042,
          76.85089558233031
        ]
      }
    },
    {
      "type": "Feature",
      "properties": {
        "norad_id": 37418,
        "name": "FENGYUN 1C DEB",
        "group": "fengyun-1c-debris",
        "lat": 13.412751489542352,
        "lon": -118.22058539897901,
        "alt_km": 1305.3737758032403,
        "timestamp": "2025-12-20T03:42:47.682375+00:00",
        "meta_object_name": "FENGYUN 1C DEB",
        "meta_object_id": "1999-025EGL",
        "meta_epoch": "2025-12-14T23:05:36.441312",
        "meta_mean_motion": 11.9514329,
        "meta_eccentricity": 0.10770942,
        "meta_inclination": 98.6128,
        "meta_ra_of_asc_node": 240.39,
        "meta_arg_of_pericenter": 315.5082,
        "meta_mean_anomaly": 36.4187,
        "meta_ephemeris_type": 0,
        "meta_classification_type": "U",
        "meta_norad_cat_id": 37418,
        "meta_element_set_no": 999,
        "meta_rev_at_epoch": 49511,
        "meta_bstar": 0.0027835423,
        "meta_mean_motion_dot": 1.13e-05,
        "meta_mean_motion_ddot": 0,
        "tle_line1": "1 37418U 99025EGL 25348.96222733  .00001130  00000+0  27835-2 0  9995",
        "tle_line2": "2 37418  98.6128 240.3900 1077094 315.5082  36.4187 11.95143290495113"
      },
      "geometry": {
        "type": "Point",
        "coordinates": [
          -118.22058539897901,
          13.412751489542352
        ]
      }
    },
    {
      "type": "Feature",
      "properties": {
        "norad_id": 37420,
        "name": "FENGYUN 1C DEB",
        "group": "fengyun-1c-debris",
        "lat": 64.32901837529357,
        "lon": -177.13823168902093,
        "alt_km": 928.3999717872293,
        "timestamp": "2025-12-20T03:42:47.682386+00:00",
        "meta_object_name": "FENGYUN 1C DEB",
        "meta_object_id": "1999-025EGN",
        "meta_epoch": "2025-12-18T04:50:39.868512",
        "meta_mean_motion": 13.9975666,
        "meta_eccentricity": 0.00708052,
        "meta_inclination": 98.8647,
        "meta_ra_of_asc_node": 342.0233,
        "meta_arg_of_pericenter": 260.9204,
        "meta_mean_anomaly": 98.3944,
        "meta_ephemeris_type": 0,
        "meta_classification_type": "U",
        "meta_norad_cat_id": 37420,
        "meta_element_set_no": 999,
        "meta_rev_at_epoch": 59841,
        "meta_bstar": 0.0004339645,
        "meta_mean_motion_dot": 6.06e-06,
        "meta_mean_motion_ddot": 0,
        "tle_line1": "1 37420U 99025EGN 25352.20185033  .00000606  00000+0  43396-3 0  9999",
        "tle_line2": "2 37420  98.8647 342.0233 0070805 260.9204  98.3944 13.99756660598416"
      },
      "geometry": {
        "type": "Point",
        "coordinates": [
          -177.13823168902093,
          64.32901837529357
        ]
      }
    },
    {
      "type": "Feature",
      "properties": {
        "norad_id": 37421,
        "name": "FENGYUN 1C DEB",
        "group": "fengyun-1c-debris",
        "lat": -48.91816420323824,
        "lon": -41.64854625653172,
        "alt_km": 1240.62924067105,
        "timestamp": "2025-12-20T03:42:47.682396+00:00",
        "meta_object_name": "FENGYUN 1C DEB",
        "meta_object_id": "1999-025EGP",
        "meta_epoch": "2025-12-17T07:53:38.656896",
        "meta_mean_motion": 13.40536382,
        "meta_eccentricity": 0.04092708,
        "meta_inclination": 98.888,
        "meta_ra_of_asc_node": 305.5227,
        "meta_arg_of_pericenter": 73.9716,
        "meta_mean_anomaly": 290.6084,
        "meta_ephemeris_type": 0,
        "meta_classification_type": "U",
        "meta_norad_cat_id": 37421,
        "meta_element_set_no": 999,
        "meta_rev_at_epoch": 61007,
        "meta_bstar": 0.00075435568,
        "meta_mean_motion_dot": 6.43e-06,
        "meta_mean_motion_ddot": 0,
        "tle_line1": "1 37421U 99025EGP 25351.32891964  .00000643  00000+0  75436-3 0  9990",
        "tle_line2": "2 37421  98.8880 305.5227 0409270  73.9716 290.6084 13.40536382610077"
      },
      "geometry": {
        "type": "Point",
        "coordinates": [
          -41.64854625653172,
          -48.91816420323824
        ]
      }
    },
    {
      "type": "Feature",
      "properties": {
        "norad_id": 37423,
        "name": "FENGYUN 1C DEB",
        "group": "fengyun-1c-debris",
        "lat": -10.960637467467082,
        "lon": 45.91050101387662,
        "alt_km": 902.899366874085,
        "timestamp": "2025-12-20T03:42:47.682406+00:00",
        "meta_object_name": "FENGYUN 1C DEB",
        "meta_object_id": "1999-025EGR",
        "meta_epoch": "2025-12-18T09:06:56.453184",
        "meta_mean_motion": 14.07567511,
        "meta_eccentricity": 0.00492132,
        "meta_inclination": 98.7864,
        "meta_ra_of_asc_node": 42.4679,
        "meta_arg_of_pericenter": 144.5136,
        "meta_mean_anomaly": 215.9323,
        "meta_ephemeris_type": 0,
        "meta_classification_type": "U",
        "meta_norad_cat_id": 37423,
        "meta_element_set_no": 999,
        "meta_rev_at_epoch": 63689,
        "meta_bstar": 0.00064107208,
        "meta_mean_motion_dot": 1.051e-05,
        "meta_mean_motion_ddot": 0,
        "tle_line1": "1 37423U 99025EGR 25352.37982006  .00001051  00000+0  64107-3 0  9993",
        "tle_line2": "2 37423  98.7864  42.4679 0049213 144.5136 215.9323 14.07567511636892"
      },
      "geometry": {
        "type": "Point",
        "coordinates": [
          45.91050101387662,
          -10.960637467467082
        ]
      }
    }
  ]
}